IRIDIUM 33 DEB          
1 33953U 97051BN  17345.64895812  .00000767  00000-0  24451-3 0  9997
2 33953  86.3955 213.3021 0024929  37.4374  14.7102 14.38346087461692
